OBJECT_NAME,OBJECT_ID,EPOCH,MEAN_MOTION,ECCENTRICITY,INCLINATION,RA_OF_ASC_NODE,ARG_OF_PERICENTER,MEAN_ANOMALY,EPHEMERIS_TYPE,CLASSIFICATION_TYPE,NORAD_CAT_ID,ELEMENT_SET_NO,REV_AT_EPOCH,BSTAR,MEAN_MOTION_DOT,MEAN_MOTION_DDOT
LEMUR-2-FINNIAN,2025-276DX,2026-06-08T03:26:18.115872,15.00262468,.0008538,97.5256,230.4243,116.1119,244.0985,0,U,66782,999,1864,.47698E-3,.5921E-4,0
LEMUR-2-STARLIGHT,2025-276DY,2026-06-08T03:48:02.107008,14.98948334,.0015353,97.5274,230.1048,153.7794,206.4209,0,U,66783,999,2884,.45216E-3,.5428E-4,0
LEMUR-2-TARTIFLETTE,2025-276DZ,2026-06-08T03:46:05.295072,14.98972295,.0013939,97.5276,230.1089,159.9634,200.2139,0,U,66784,999,2884,.51669E-3,.6213E-4,0
LEMUR-2-VUKASIN,2025-276EA,2026-06-08T03:48:10.328832,15.00266763,.0006275,97.5306,230.3853,145.5098,214.6534,0,U,66785,999,2879,.4456E-3,.5526E-4,0
LEMUR-2-HOTSPUR-TOM,2025-276EB,2026-06-08T03:34:21.782208,14.98847351,.001529,97.5250,230.0853,155.1823,205.0139,0,U,66786,999,2877,.5277E-3,.6329E-4,0
LEMUR-2-MYRA,2025-276EC,2026-06-08T02:56:15.179424,15.00124589,.0015495,97.5218,230.3022,171.6733,188.4751,0,U,66787,999,2885,.61586E-3,.7649E-4,0
LEMUR-2 FIKRETDENGIZ,2026-004A,2026-06-07T23:46:36.347808,14.88259665,.0009286,97.8015,157.6907,160.0491,200.1090,0,U,67363,999,2191,.48687E-3,.4447E-4,0
TWILIGHT-1 OBJECT B,2026-004B,2026-06-07T22:39:35.101728,14.87671670,.0009348,97.8059,157.6639,151.2342,208.9392,0,U,67364,999,2191,.27756E-3,.2474E-4,0
LEMUR-2-MARIO-SOUSA,2026-004C,2026-06-07T23:24:39.735360,14.88442221,.0008833,97.7994,157.6721,160.3712,199.7847,0,U,67365,999,2192,.49258E-3,.452E-4,0
LEMUR-2-SONNENBLUME,2026-004E,2026-06-07T23:20:41.898624,14.88270821,.0008521,97.7983,157.6573,162.2377,197.9139,0,U,67367,999,2192,.32786E-3,.2977E-4,0
LEMUR-2-WOBLER,2026-004F,2026-06-07T23:13:02.760384,14.88456181,.0008856,97.8041,157.7653,151.7123,208.4576,0,U,67368,999,2192,.45943E-3,.4213E-4,0
LEMUR-2-GRAM-E-SUE,2026-004H,2026-06-07T22:59:15.876096,14.88432138,.0007387,97.7973,157.6573,162.5067,197.6405,0,U,67370,999,2192,.32067E-3,.2921E-4,0
LEMUR-2-KATIE,2026-004AA,2026-06-07T22:54:55.705824,14.89990320,.0004742,97.8039,158.0840,111.8342,248.3381,0,U,67387,999,2193,.57292E-3,.5471E-4,0
LEMUR-2-HCS-BAZUS,2026-004AB,2026-06-07T22:53:38.723424,14.89986220,.0004367,97.8026,158.0651,107.2582,252.9114,0,U,67388,999,2193,.63568E-3,.6076E-4,0
