LEMUR-2-FINNIAN         
1 66782U 25276DX  26159.14326523  .00005921  00000+0  47698-3 0  9993
2 66782  97.5256 230.4243 0008538 116.1119 244.0985 15.00262468 18642
LEMUR-2-STARLIGHT       
1 66783U 25276DY  26159.15835772  .00005428  00000+0  45216-3 0  9992
2 66783  97.5274 230.1048 0015353 153.7794 206.4209 14.98948334 28845
LEMUR-2-TARTIFLETTE     
1 66784U 25276DZ  26159.15700573  .00006213  00000+0  51669-3 0  9995
2 66784  97.5276 230.1089 0013939 159.9634 200.2139 14.98972295 28849
LEMUR-2-VUKASIN         
1 66785U 25276EA  26159.15845288  .00005526  00000+0  44560-3 0  9997
2 66785  97.5306 230.3853 0006275 145.5098 214.6534 15.00266763 28797
LEMUR-2-HOTSPUR-TOM     
1 66786U 25276EB  26159.14886322  .00006329  00000+0  52770-3 0  9995
2 66786  97.5250 230.0853 0015290 155.1823 205.0139 14.98847351 28770
LEMUR-2-MYRA            
1 66787U 25276EC  26159.12239791  .00007649  00000+0  61586-3 0  9997
2 66787  97.5218 230.3022 0015495 171.6733 188.4751 15.00124589 28854
LEMUR-2 FIKRETDENGIZ    
1 67363U 26004A   26158.99069847  .00004447  00000+0  48687-3 0  9995
2 67363  97.8015 157.6907 0009286 160.0491 200.1090 14.88259665 21917
TWILIGHT-1 OBJECT B     
1 67364U 26004B   26158.94415627  .00002474  00000+0  27756-3 0  9994
2 67364  97.8059 157.6639 0009348 151.2342 208.9392 14.87671670 21918
LEMUR-2-MARIO-SOUSA     
1 67365U 26004C   26158.97545990  .00004520  00000+0  49258-3 0  9990
2 67365  97.7994 157.6721 0008833 160.3712 199.7847 14.88442221 21920
LEMUR-2-SONNENBLUME     
1 67367U 26004E   26158.97270716  .00002977  00000+0  32786-3 0  9995
2 67367  97.7983 157.6573 0008521 162.2377 197.9139 14.88270821 21926
LEMUR-2-WOBLER          
1 67368U 26004F   26158.96739306  .00004213  00000+0  45943-3 0  9994
2 67368  97.8041 157.7653 0008856 151.7123 208.4576 14.88456181 21924
LEMUR-2-GRAM-E-SUE      
1 67370U 26004H   26158.95782264  .00002921  00000+0  32067-3 0  9994
2 67370  97.7973 157.6573 0007387 162.5067 197.6405 14.88432138 21921
LEMUR-2-KATIE           
1 67387U 26004AA  26158.95481141  .00005471  00000+0  57292-3 0  9992
2 67387  97.8039 158.0840 0004742 111.8342 248.3381 14.89990320 21931
LEMUR-2-HCS-BAZUS       
1 67388U 26004AB  26158.95392041  .00006076  00000+0  63568-3 0  9998
2 67388  97.8026 158.0651 0004367 107.2582 252.9114 14.89986220 21935
